{
  "norad_id": 63661,
  "name": "STARLINK-33823",
  "history": [
    {
      "epoch": "2026-03-28T18:28:24.589056",
      "apogee_km": 483.89736969634487,
      "perigee_km": 482.0474773735705,
      "latitude_deg": -1.7789992715878573,
      "longitude_deg": -100.00601215986535,
      "semi_major_axis_km": 6861.109423534957,
      "eccentricity": 0.00013481,
      "inclination_deg": 43.0006,
      "raan_deg": 257.5627,
      "arg_perigee_deg": 272.7665,
      "mean_anomaly_deg": 87.3032,
      "mean_motion_rev_day": 15.27605606
    },
    {
      "epoch": "2026-03-29T03:53:20.859936",
      "apogee_km": 483.93131602937956,
      "perigee_km": 481.988253419946,
      "latitude_deg": -2.040848417992616,
      "longitude_deg": -62.34348895982839,
      "semi_major_axis_km": 6861.096784724662,
      "eccentricity": 0.0001416,
      "inclination_deg": 42.9982,
      "raan_deg": 255.3464,
      "arg_perigee_deg": 269.2087,
      "mean_anomaly_deg": 90.8603,
      "mean_motion_rev_day": 15.27609827
    }
  ]
}